GLOBALSTAR M075 [+]     
1 37192U 10054E   24063.49847525 -.00000091  00000+0  70813-4 0  9994
2 37192  51.9938 174.6823 0000672 104.8792 335.4336 12.62271142616565
GLOBALSTAR M073 [+]     
1 37193U 10054F   24063.32503993 -.00000104  00000+0 -21080-5 0  9994
2 37193  52.0052  88.6670 0000466 102.1427 271.3630 12.62262273618377
GLOBALSTAR M083 [+]     
1 37739U 11033A   24063.37142635 -.00000098  00000+0  34257-4 0  9995
2 37739  51.9871  37.9000 0000143  86.1776  77.9104 12.62266033587395
GLOBALSTAR M088 [+]     
1 37740U 11033B   24063.88083312 -.00000071  00000+0  18134-3 0  9995
2 37740  51.9739 302.2401 0000585  63.8587  16.7296 12.62265538583001
GLOBALSTAR M091 [+]     
1 37741U 11033C   24063.73528213 -.00000076  00000+0  15588-3 0  9999
2 37741  51.9979 265.3955 0000604  70.5805   8.2736 12.62271989583777
GLOBALSTAR M085 [+]     
1 37742U 11033D   24063.72728958 -.00000081  00000+0  12565-3 0  9995
2 37742  51.9847 216.8738 0000615  93.6545   8.1928 12.62268266584284
GLOBALSTAR M081 [+]     
1 37743U 11033E   24063.84658858 -.00000084  00000+0  10759-3 0  9996
2 37743  51.9937 219.0065 0000708  76.6534  88.0923 12.62270305584442
GLOBALSTAR M089 [+]     
1 37744U 11033F   24063.63592324 -.00000101  00000+0  17505-4 0  9996
2 37744  51.9922 173.9661 0000999  94.5598  11.3590 12.62254683585269
